
# Worst residual: 8.57 km
# MJD 58907.000000 (2020 Feb 28  0:00)
1964-040B = NORAD 00837 = Vela 2B
1 00837U 64040B   20059.49919926  .00000000  00000-0  00000-0 0  7221
2 00837 038.6399 167.7580 5814875 315.5332 162.9875 00.23993801    05

# Worst residual: 2.83 km
# MJD 58908.000000 (2020 Feb 29  0:00)
1964-040B = NORAD 00837 = Vela 2B
1 00837U 64040B   20060.49919926  .00000000  00000-0  00000-0 0  7223
2 00837 038.6615 167.7133 5816911 315.5387 249.4938 00.24007779    05

# Worst residual: 14.10 km
# MJD 58909.000000 (2020 Mar  1  0:00)
1964-040B = NORAD 00837 = Vela 2B
1 00837U 64040B   20061.49919926  .00000000  00000-0  00000-0 0  7224
2 00837 038.6791 167.6788 5808204 315.5766 335.8751 00.24033828    09

# Worst residual: 7.38 km
# MJD 58910.000000 (2020 Mar  2  0:00)
1964-040B = NORAD 00837 = Vela 2B
1 00837U 64040B   20062.49919926  .00000000  00000-0  00000-0 0  7225
2 00837 038.6814 167.6464 5809590 315.5406 062.3337 00.23997951    03

# Worst residual: 2.50 km
# MJD 58911.000000 (2020 Mar  3  0:00)
1964-040B = NORAD 00837 = Vela 2B
1 00837U 64040B   20063.49919926  .00000000  00000-0  00000-0 0  7226
2 00837 038.6989 167.5914 5807490 315.5802 148.6939 00.23993055    09

# Worst residual: 5.46 km
# MJD 58912.000000 (2020 Mar  4  0:00)
1964-040B = NORAD 00837 = Vela 2B
1 00837U 64040B   20064.49919926  .00000000  00000-0  00000-0 0  7227
2 00837 038.7139 167.5537 5805656 315.6357 234.9906 00.24000652    02

# Worst residual: 12.43 km
# MJD 58913.000000 (2020 Mar  5  0:00)
1964-040B = NORAD 00837 = Vela 2B
1 00837U 64040B   20065.49919926  .00000000  00000-0  00000-0 0  7228
2 00837 038.7468 167.5186 5800364 315.7107 321.3255 00.24027761    00

# Worst residual: 15.48 km
# MJD 58914.000000 (2020 Mar  6  0:00)
1964-040B = NORAD 00837 = Vela 2B
1 00837U 64040B   20066.49919926  .00000000  00000-0  00000-0 0  7229
2 00837 038.7315 167.5226 5803000 315.7381 047.6983 00.23948569    03

# Worst residual: 5.18 km
# MJD 58915.000000 (2020 Mar  7  0:00)
1964-040B = NORAD 00837 = Vela 2B
1 00837U 64040B   20067.49919926  .00000000  00000-0  00000-0 0  7220
2 00837 038.7461 167.4595 5791869 315.7295 134.2115 00.23977442    08

# Worst residual: 7.01 km
# MJD 58916.000000 (2020 Mar  8  0:00)
1964-040B = NORAD 00837 = Vela 2B
1 00837U 64040B   20068.49919926  .00000000  00000-0  00000-0 0  7221
2 00837 038.7498 167.4418 5791226 315.7418 220.5365 00.23987818    00

# Worst residual: 18.45 km
# MJD 58917.000000 (2020 Mar  9  0:00)
1964-040B = NORAD 00837 = Vela 2B
1 00837U 64040B   20069.49919926  .00000000  00000-0  00000-0 0  7222
2 00837 038.7655 167.4049 5784035 315.8851 306.6754 00.24038072    05

# Worst residual: 18.08 km
# MJD 58918.000000 (2020 Mar 10  0:00)
1964-040B = NORAD 00837 = Vela 2B
1 00837U 64040B   20070.49919926  .00000000  00000-0  00000-0 0  7224
2 00837 038.7834 167.3751 5788876 315.8910 033.0956 00.23938182    01

# Worst residual: 13.89 km
# MJD 58919.000000 (2020 Mar 11  0:00)
1964-040B = NORAD 00837 = Vela 2B
1 00837U 64040B   20071.49919926  .00000000  00000-0  00000-0 0  7225
2 00837 038.7998 167.3566 5775852 315.8306 119.6486 00.23983166    06

# Worst residual: 2.22 km
# MJD 58920.000000 (2020 Mar 12  0:00)
1964-040B = NORAD 00837 = Vela 2B
1 00837U 64040B   20072.49919926  .00000000  00000-0  00000-0 0  7226
2 00837 038.8028 167.3450 5770929 315.7669 206.2128 00.23990965    05

# Worst residual: 20.48 km
# MJD 58921.000000 (2020 Mar 13  0:00)
1964-040B = NORAD 00837 = Vela 2B
1 00837U 64040B   20073.49919926  .00000000  00000-0  00000-0 0  7227
2 00837 038.8010 167.3187 5763888 315.8502 292.4275 00.24016438    01

# Worst residual: 23.47 km
# MJD 58922.000000 (2020 Mar 14  0:00)
1964-040B = NORAD 00837 = Vela 2B
1 00837U 64040B   20074.49919926  .00000000  00000-0  00000-0 0  7228
2 00837 038.8147 167.2844 5752464 315.7944 018.8944 00.24034766    05

# Worst residual: 1.69 km
# MJD 58923.000000 (2020 Mar 15  0:00)
1964-040B = NORAD 00837 = Vela 2B
1 00837U 64040B   20075.49919926  .00000000  00000-0  00000-0 0  7229
2 00837 038.8264 167.2257 5755482 315.8209 105.2863 00.24005082    01

# Worst residual: 2.05 km
# MJD 58924.000000 (2020 Mar 16  0:00)
1964-040B = NORAD 00837 = Vela 2B
1 00837U 64040B   20076.49919926  .00000000  00000-0  00000-0 0  7220
2 00837 038.8383 167.1934 5751189 315.8152 191.7887 00.24007052    06

# Worst residual: 4.19 km
# MJD 58925.000000 (2020 Mar 17  0:00)
1964-040B = NORAD 00837 = Vela 2B
1 00837U 64040B   20077.49919926  .00000000  00000-0  00000-0 0  7221
2 00837 038.8406 167.1686 5749044 315.8451 278.2154 00.24017589    09

# Worst residual: 31.48 km
# MJD 58926.000000 (2020 Mar 18  0:00)
1964-040B = NORAD 00837 = Vela 2B
1 00837U 64040B   20078.49919926  .00000000  00000-0  00000-0 0  7222
2 00837 038.8614 167.1665 5748154 315.7979 004.7016 00.23982020    01

# Worst residual: 13.09 km
# MJD 58927.000000 (2020 Mar 19  0:00)
1964-040B = NORAD 00837 = Vela 2B
1 00837U 64040B   20079.49919926  .00000000  00000-0  00000-0 0  7223
2 00837 038.8549 167.1238 5741523 315.8557 091.0555 00.23968834    04

# Worst residual: 3.98 km
# MJD 58928.000000 (2020 Mar 20  0:00)
1964-040B = NORAD 00837 = Vela 2B
1 00837U 64040B   20080.49919926  .00000000  00000-0  00000-0 0  7225
2 00837 038.8685 167.0972 5736177 315.7630 177.7034 00.23992824    09

# Worst residual: 13.43 km
# MJD 58929.000000 (2020 Mar 21  0:00)
1964-040B = NORAD 00837 = Vela 2B
1 00837U 64040B   20081.49919926  .00000000  00000-0  00000-0 0  7226
2 00837 038.9218 167.0262 5726989 315.8220 264.0062 00.23990829    04

# Worst residual: 21.12 km
# MJD 58930.000000 (2020 Mar 22  0:00)
1964-040B = NORAD 00837 = Vela 2B
1 00837U 64040B   20082.49919926  .00000000  00000-0  00000-0 0  7227
2 00837 038.9674 166.9966 5719140 315.8597 350.3334 00.24006440    06

# Worst residual: 20.79 km
# MJD 58931.000000 (2020 Mar 23  0:00)
1964-040B = NORAD 00837 = Vela 2B
1 00837U 64040B   20083.49919926  .00000000  00000-0  00000-0 0  7228
2 00837 038.9781 166.9705 5717560 315.9845 076.5680 00.23929065    04

# Worst residual: 10.90 km
# MJD 58932.000000 (2020 Mar 24  0:00)
1964-040B = NORAD 00837 = Vela 2B
1 00837U 64040B   20084.49919926  .00000000  00000-0  00000-0 0  7229
2 00837 038.9916 166.9509 5716114 315.7793 163.3675 00.23997967    05

# Worst residual: 5.91 km
# MJD 58933.000000 (2020 Mar 25  0:00)
1964-040B = NORAD 00837 = Vela 2B
1 00837U 64040B   20085.49919926  .00000000  00000-0  00000-0 0  7220
2 00837 038.9919 166.9309 5714814 315.7336 249.9434 00.24002901    04

# Worst residual: 14.10 km
# MJD 58934.000000 (2020 Mar 26  0:00)
1964-040B = NORAD 00837 = Vela 2B
1 00837U 64040B   20086.49919926  .00000000  00000-0  00000-0 0  7221
2 00837 038.9814 166.8928 5700741 315.7714 336.2499 00.24036808    02

# Worst residual: 4.20 km
# MJD 58935.000000 (2020 Mar 27  0:00)
1964-040B = NORAD 00837 = Vela 2B
1 00837U 64040B   20087.49919926  .00000000  00000-0  00000-0 0  7222
2 00837 039.0071 166.8550 5704159 315.7777 062.6476 00.23973986    07
